CCSDS_OMM_VERS = 2.0
CREATION_DATE  = 
ORIGINATOR     = 

OBJECT_NAME    = DELTA 2 R/B(1)
OBJECT_ID      = 1990-008B
CENTER_NAME    = EARTH
REF_FRAME      = TEME
TIME_SYSTEM    = UTC
MEAN_ELEMENT_THEORY = SGP/SGP4

EPOCH          = 2026-01-26T12:35:21.461280
MEAN_MOTION    = 15.50122982
ECCENTRICITY   = .0099929
INCLINATION    = 35.6057
RA_OF_ASC_NODE = 90.3468
ARG_OF_PERICENTER = 227.9474
MEAN_ANOMALY   = 131.2723

EPHEMERIS_TYPE = 0
CLASSIFICATION_TYPE = U
NORAD_CAT_ID   = 20453
ELEMENT_SET_NO = 999
REV_AT_EPOCH   = 91957
BSTAR          = .10066E-2
MEAN_MOTION_DOT = .72587E-3
MEAN_MOTION_DDOT = 0

CCSDS_OMM_VERS = 2.0
CREATION_DATE  = 
ORIGINATOR     = 

OBJECT_NAME    = COSMOS 2058
OBJECT_ID      = 1990-010A
CENTER_NAME    = EARTH
REF_FRAME      = TEME
TIME_SYSTEM    = UTC
MEAN_ELEMENT_THEORY = SGP/SGP4

EPOCH          = 2026-01-27T03:06:41.979456
MEAN_MOTION    = 15.10936573
ECCENTRICITY   = .00116855
INCLINATION    = 82.4651
RA_OF_ASC_NODE = 88.3700
ARG_OF_PERICENTER = 113.1720
MEAN_ANOMALY   = 247.0742

EPHEMERIS_TYPE = 0
CLASSIFICATION_TYPE = U
NORAD_CAT_ID   = 20465
ELEMENT_SET_NO = 999
REV_AT_EPOCH   = 93596
BSTAR          = .32722652E-3
MEAN_MOTION_DOT = .549E-4
MEAN_MOTION_DDOT = 0

CCSDS_OMM_VERS = 2.0
CREATION_DATE  = 
ORIGINATOR     = 

OBJECT_NAME    = SL-14 R/B
OBJECT_ID      = 1990-010B
CENTER_NAME    = EARTH
REF_FRAME      = TEME
TIME_SYSTEM    = UTC
MEAN_ELEMENT_THEORY = SGP/SGP4

EPOCH          = 2026-01-27T06:34:51.112416
MEAN_MOTION    = 14.83528176
ECCENTRICITY   = .00213929
INCLINATION    = 82.5043
RA_OF_ASC_NODE = 306.2879
ARG_OF_PERICENTER = 77.2441
MEAN_ANOMALY   = 283.1163

EPHEMERIS_TYPE = 0
CLASSIFICATION_TYPE = U
NORAD_CAT_ID   = 20466
ELEMENT_SET_NO = 999
REV_AT_EPOCH   = 92234
BSTAR          = .97839648E-4
MEAN_MOTION_DOT = .832E-5
MEAN_MOTION_DDOT = 0

CCSDS_OMM_VERS = 2.0
CREATION_DATE  = 
ORIGINATOR     = 

OBJECT_NAME    = SL-14 R/B
OBJECT_ID      = 1990-018B
CENTER_NAME    = EARTH
REF_FRAME      = TEME
TIME_SYSTEM    = UTC
MEAN_ELEMENT_THEORY = SGP/SGP4

EPOCH          = 2026-01-27T02:48:29.567232
MEAN_MOTION    = 14.82101539
ECCENTRICITY   = .00152428
INCLINATION    = 82.5197
RA_OF_ASC_NODE = 261.9558
ARG_OF_PERICENTER = 225.4786
MEAN_ANOMALY   = 134.5184

EPHEMERIS_TYPE = 0
CLASSIFICATION_TYPE = U
NORAD_CAT_ID   = 20511
ELEMENT_SET_NO = 999
REV_AT_EPOCH   = 91642
BSTAR          = .76509135E-4
MEAN_MOTION_DOT = .632E-5
MEAN_MOTION_DDOT = 0

CCSDS_OMM_VERS = 2.0
CREATION_DATE  = 
ORIGINATOR     = 

OBJECT_NAME    = HST
OBJECT_ID      = 1990-037B
CENTER_NAME    = EARTH
REF_FRAME      = TEME
TIME_SYSTEM    = UTC
MEAN_ELEMENT_THEORY = SGP/SGP4

EPOCH          = 2026-01-26T21:53:44.388384
MEAN_MOTION    = 15.28781740
ECCENTRICITY   = .00017989
INCLINATION    = 28.4682
RA_OF_ASC_NODE = 324.8514
ARG_OF_PERICENTER = 15.4500
MEAN_ANOMALY   = 344.6150

EPHEMERIS_TYPE = 0
CLASSIFICATION_TYPE = U
NORAD_CAT_ID   = 20580
ELEMENT_SET_NO = 999
REV_AT_EPOCH   = 76691
BSTAR          = .38165572E-3
MEAN_MOTION_DOT = .11225E-3
MEAN_MOTION_DDOT = 0

CCSDS_OMM_VERS = 2.0
CREATION_DATE  = 
ORIGINATOR     = 

OBJECT_NAME    = SL-16 R/B
OBJECT_ID      = 1990-046B
CENTER_NAME    = EARTH
REF_FRAME      = TEME
TIME_SYSTEM    = UTC
MEAN_ELEMENT_THEORY = SGP/SGP4

EPOCH          = 2026-01-27T06:31:18.361920
MEAN_MOTION    = 14.15006731
ECCENTRICITY   = .00141646
INCLINATION    = 70.9993
RA_OF_ASC_NODE = 24.8965
ARG_OF_PERICENTER = 356.9882
MEAN_ANOMALY   = 3.1153

EPHEMERIS_TYPE = 0
CLASSIFICATION_TYPE = U
NORAD_CAT_ID   = 20625
ELEMENT_SET_NO = 999
REV_AT_EPOCH   = 84253
BSTAR          = -.83945536E-4
MEAN_MOTION_DOT = -.21E-5
MEAN_MOTION_DDOT = 0

CCSDS_OMM_VERS = 2.0
CREATION_DATE  = 
ORIGINATOR     = 

OBJECT_NAME    = COSMOS 2084
OBJECT_ID      = 1990-055A
CENTER_NAME    = EARTH
REF_FRAME      = TEME
TIME_SYSTEM    = UTC
MEAN_ELEMENT_THEORY = SGP/SGP4

EPOCH          = 2026-01-26T16:15:50.649120
MEAN_MOTION    = 15.05364750
ECCENTRICITY   = .0023939
INCLINATION    = 62.7902
RA_OF_ASC_NODE = 118.8371
ARG_OF_PERICENTER = 181.5629
MEAN_ANOMALY   = 178.5400

EPHEMERIS_TYPE = 0
CLASSIFICATION_TYPE = U
NORAD_CAT_ID   = 20663
ELEMENT_SET_NO = 999
REV_AT_EPOCH   = 92999
BSTAR          = .33267998E-3
MEAN_MOTION_DOT = .4619E-4
MEAN_MOTION_DDOT = 0

CCSDS_OMM_VERS = 2.0
CREATION_DATE  = 
ORIGINATOR     = 

OBJECT_NAME    = SL-6 R/B(2)
OBJECT_ID      = 1990-055D
CENTER_NAME    = EARTH
REF_FRAME      = TEME
TIME_SYSTEM    = UTC
MEAN_ELEMENT_THEORY = SGP/SGP4

EPOCH          = 2026-01-27T06:27:00.337824
MEAN_MOTION    = 15.03350192
ECCENTRICITY   = .00187606
INCLINATION    = 62.7841
RA_OF_ASC_NODE = 34.6833
ARG_OF_PERICENTER = 334.1927
MEAN_ANOMALY   = 25.8235

EPHEMERIS_TYPE = 0
CLASSIFICATION_TYPE = U
NORAD_CAT_ID   = 20666
ELEMENT_SET_NO = 999
REV_AT_EPOCH   = 93196
BSTAR          = .30625555E-3
MEAN_MOTION_DOT = .3997E-4
MEAN_MOTION_DDOT = 0

CCSDS_OMM_VERS = 2.0
CREATION_DATE  = 
ORIGINATOR     = 

OBJECT_NAME    = SL-8 R/B
OBJECT_ID      = 1990-078B
CENTER_NAME    = EARTH
REF_FRAME      = TEME
TIME_SYSTEM    = UTC
MEAN_ELEMENT_THEORY = SGP/SGP4

EPOCH          = 2026-01-27T03:52:48.415008
MEAN_MOTION    = 14.87626474
ECCENTRICITY   = .03680051
INCLINATION    = 82.9045
RA_OF_ASC_NODE = 288.6126
ARG_OF_PERICENTER = 153.1104
MEAN_ANOMALY   = 208.9731

EPHEMERIS_TYPE = 0
CLASSIFICATION_TYPE = U
NORAD_CAT_ID   = 20775
ELEMENT_SET_NO = 999
REV_AT_EPOCH   = 80312
BSTAR          = .6985872E-3
MEAN_MOTION_DOT = .2341E-3
MEAN_MOTION_DDOT = 0

CCSDS_OMM_VERS = 2.0
CREATION_DATE  = 
ORIGINATOR     = 

OBJECT_NAME    = SL-8 R/B
OBJECT_ID      = 1991-006B
CENTER_NAME    = EARTH
REF_FRAME      = TEME
TIME_SYSTEM    = UTC
MEAN_ELEMENT_THEORY = SGP/SGP4

EPOCH          = 2026-01-26T22:47:18.469248
MEAN_MOTION    = 13.77491999
ECCENTRICITY   = .00231047
INCLINATION    = 82.9412
RA_OF_ASC_NODE = 201.0818
ARG_OF_PERICENTER = 149.5151
MEAN_ANOMALY   = 4.0799

EPHEMERIS_TYPE = 0
CLASSIFICATION_TYPE = U
NORAD_CAT_ID   = 21088
ELEMENT_SET_NO = 999
REV_AT_EPOCH   = 75832
BSTAR          = .15518988E-4
MEAN_MOTION_DOT = .31E-6
MEAN_MOTION_DDOT = 0

CCSDS_OMM_VERS = 2.0
CREATION_DATE  = 
ORIGINATOR     = 

OBJECT_NAME    = OKEAN-3
OBJECT_ID      = 1991-039A
CENTER_NAME    = EARTH
REF_FRAME      = TEME
TIME_SYSTEM    = UTC
MEAN_ELEMENT_THEORY = SGP/SGP4

EPOCH          = 2026-01-27T05:56:39.394752
MEAN_MOTION    = 15.04463269
ECCENTRICITY   = .00159019
INCLINATION    = 82.5171
RA_OF_ASC_NODE = 16.9803
ARG_OF_PERICENTER = 108.9822
MEAN_ANOMALY   = 251.3129

EPHEMERIS_TYPE = 0
CLASSIFICATION_TYPE = U
NORAD_CAT_ID   = 21397
ELEMENT_SET_NO = 999
REV_AT_EPOCH   = 85880
BSTAR          = .42877773E-3
MEAN_MOTION_DOT = .604E-4
MEAN_MOTION_DDOT = 0

CCSDS_OMM_VERS = 2.0
CREATION_DATE  = 
ORIGINATOR     = 

OBJECT_NAME    = COSMOS 2151
OBJECT_ID      = 1991-042A
CENTER_NAME    = EARTH
REF_FRAME      = TEME
TIME_SYSTEM    = UTC
MEAN_ELEMENT_THEORY = SGP/SGP4

EPOCH          = 2026-01-27T07:47:32.217216
MEAN_MOTION    = 14.99928041
ECCENTRICITY   = .0012193
INCLINATION    = 82.4975
RA_OF_ASC_NODE = 123.5712
ARG_OF_PERICENTER = 192.5623
MEAN_ANOMALY   = 167.5299

EPHEMERIS_TYPE = 0
CLASSIFICATION_TYPE = U
NORAD_CAT_ID   = 21422
ELEMENT_SET_NO = 999
REV_AT_EPOCH   = 85699
BSTAR          = .29605072E-3
MEAN_MOTION_DOT = .3705E-4
MEAN_MOTION_DDOT = 0

