DELTA 2 R/B(1)          
1 20453U 90008B   26026.52455395  .00072587  00000+0  10066-2 0  9998
2 20453  35.6057  90.3468 0099929 227.9474 131.2723 15.50122982919570
COSMOS 2058             
1 20465U 90010A   26027.12965254  .00005490  00000+0  32723-3 0  9995
2 20465  82.4651  88.3700 0011685 113.1720 247.0742 15.10936573935965
SL-14 R/B               
1 20466U 90010B   26027.27420269  .00000832  00000+0  97840-4 0  9991
2 20466  82.5043 306.2879 0021392  77.2441 283.1163 14.83528176922348
SL-14 R/B               
1 20511U 90018B   26027.11700888  .00000632  00000+0  76509-4 0  9998
2 20511  82.5197 261.9558 0015242 225.4786 134.5184 14.82101539916429
HST                     
1 20580U 90037B   26026.91231931  .00011225  00000+0  38166-3 0  9996
2 20580  28.4682 324.8514 0001798  15.4500 344.6150 15.28781740766919
SL-16 R/B               
1 20625U 90046B   26027.27174030 -.00000210  00000+0 -83946-4 0  9993
2 20625  70.9993  24.8965 0014164 356.9882   3.1153 14.15006731842538
COSMOS 2084             
1 20663U 90055A   26026.67766955  .00004619  00000+0  33268-3 0  9997
2 20663  62.7902 118.8371 0023939 181.5629 178.5400 15.05364750929991
SL-6 R/B(2)             
1 20666U 90055D   26027.26875391  .00003997  00000+0  30626-3 0  9994
2 20666  62.7841  34.6833 0018760 334.1927  25.8235 15.03350192931960
SL-8 R/B                
1 20775U 90078B   26027.16167147  .00023410  00000+0  69859-3 0  9994
2 20775  82.9045 288.6126 0368005 153.1104 208.9731 14.87626474803124
SL-8 R/B                
1 21088U 91006B   26026.94951932  .00000031  00000+0  15519-4 0  9991
2 21088  82.9412 201.0818 0023104 149.5151   4.0799 13.77491999758326
OKEAN-3                 
1 21397U 91039A   26027.24767818  .00006040  00000+0  42878-3 0  9995
2 21397  82.5171  16.9803 0015901 108.9822 251.3129 15.04463269858803
COSMOS 2151             
1 21422U 91042A   26027.32467844  .00003705  00000+0  29605-3 0  9991
2 21422  82.4975 123.5712 0012193 192.5623 167.5299 14.99928041856996
